QIANFAN-105             
1 66047U 25233Q   25331.98647896  .00000243  00000+0  13959-3 0  9997
2 66047  88.9963  63.7605 0017476  84.4164 275.9011 14.06027651  5920
QIANFAN-106             
1 66048U 25233R   25331.71746078  .00000146  00000+0  84975-4 0  9990
2 66048  88.9979  63.7980 0017646 100.9195 259.3973 14.02812457  5881
QIANFAN-107             
1 66049U 25233S   25331.98700054  .00000380  00000+0  22668-3 0  9994
2 66049  88.9964  63.7602 0017968  85.1262 275.1970 14.05135046  5926
QIANFAN-108             
1 66050U 25233T   25331.99394776  .00000264  00000+0  15705-3 0  9992
2 66050  88.9960  63.7606 0017286  86.1964 274.1194 14.04252879  5921
